INTELSAT 30 (IS-30)     
1 40271U 14062A   26114.39488937 -.00000165  00000+0  00000+0 0  9993
2 40271   0.0073 224.7449 0002247  46.3663 348.4158  1.00269572  6259
ARSAT 1                 
1 40272U 14062B   26117.43543058  .00000000  00000+0  00000+0 0  9995
2 40272   0.0144  64.7735 0001947 328.3987 267.2025  1.00269386 42116
EUTELSAT 53A            
1 40277U 14064A   26117.25322468  .00000088  00000+0  00000+0 0  9998
2 40277   0.0203 249.8365 0000304  46.8274  62.7441  1.00272715 41051
GSAT-16                 
1 40332U 14078A   26117.19489045  .00000075  00000+0  00000+0 0  9999
2 40332   0.1177  84.4616 0006935 348.9178 267.0402  1.00272246 41596
DIRECTV 14              
1 40333U 14078B   26117.10183941 -.00000136  00000+0  00000+0 0  9996
2 40333   0.0115  56.2272 0000071  70.8345  25.4552  1.00272214 41536
YAMAL 401               
1 40345U 14082A   26115.63864148 -.00000243  00000+0  00000+0 0  9994
2 40345   0.0122 165.5853 0000644 235.6913 132.2360  1.00273371 41397
ASTRA 2G                
1 40364U 14089A   26117.36641940  .00000140  00000+0  00000+0 0  9992
2 40364   0.0578  32.2511 0004814  12.8877 330.3077  1.00271632 41452
FENGYUN 2G              
1 40367U 14090A   26117.46850824 -.00000308  00000+0  00000+0 0  9998
2 40367   5.5133  73.4139 0002868 145.1611 265.3398  1.00272279 41493
MUOS-3                  
1 40374U 15002A   26116.96016850 -.00000138  00000+0  00000+0 0  9998
2 40374   4.4233  43.2696 0051058 181.4349 320.3880  1.00270286 41077
INMARSAT 5-F2           
1 40384U 15005A   26117.19438003  .00000000  00000+0  00000+0 0  9993
2 40384   0.0129 239.8308 0000640 113.1893 237.1321  1.00265813 40483
ABS-3A                  
1 40424U 15010A   26117.22267125 -.00000037  00000+0  00000+0 0  9994
2 40424   0.0137 257.8158 0001435  84.5846 309.9978  1.00269059 40866
EUTELSAT 115 WEST B     
1 40425U 15010B   26117.49103226 -.00000034  00000+0  00000+0 0  9992
2 40425   0.0103 103.4697 0000110  37.3133 136.5728  1.00270684 40883
EXPRESS-AM7             
1 40505U 15012A   26117.31225475  .00000141  00000+0  00000+0 0  9993
2 40505   0.0241  67.7738 0002993 324.3401 335.6045  1.00274391 40491
BEIDOU-3S IGSO-1S       
1 40549U 15019A   26112.98991377 -.00000171  00000+0  00000+0 0  9991
2 40549  49.2998 296.1212 0037208 189.9963 176.4804  1.00261100 40525
THOR 7                  
1 40613U 15022A   26117.22267126 -.00000019  00000+0  00000+0 0  9998
2 40613   0.0459  86.1413 0002802 303.4883 265.1021  1.00270445 40305
TURKMENALEM52E/MONACOSAT
1 40617U 15023A   26117.19489046  .00000000  00000+0  00000+0 0  9995
2 40617   0.0225  94.4648 0003192 306.1794 296.7206  1.00272383 40337
DIRECTV 15              
1 40663U 15026A   26117.48690759 -.00000112  00000+0  00000+0 0  9991
2 40663   0.0291  74.9055 0000365 122.3866  90.5923  1.00270914 39953
