[{"OBJECT_NAME":"INTELSAT 30 (IS-30)","OBJECT_ID":"2014-062A","EPOCH":"2026-04-24T09:28:38.441568","MEAN_MOTION":1.00269572,"ECCENTRICITY":0.00022471,"INCLINATION":0.0073,"RA_OF_ASC_NODE":224.7449,"ARG_OF_PERICENTER":46.3663,"MEAN_ANOMALY":348.4158,"EPHEMERIS_TYPE":0,"CLASSIFICATION_TYPE":"U","NORAD_CAT_ID":40271,"ELEMENT_SET_NO":999,"REV_AT_EPOCH":625,"BSTAR":0,"MEAN_MOTION_DOT":-1.65e-6,"MEAN_MOTION_DDOT":0},{"OBJECT_NAME":"ARSAT 1","OBJECT_ID":"2014-062B","EPOCH":"2026-04-27T10:27:01.202112","MEAN_MOTION":1.00269386,"ECCENTRICITY":0.0001947,"INCLINATION":0.0144,"RA_OF_ASC_NODE":64.7735,"ARG_OF_PERICENTER":328.3987,"MEAN_ANOMALY":267.2025,"EPHEMERIS_TYPE":0,"CLASSIFICATION_TYPE":"U","NORAD_CAT_ID":40272,"ELEMENT_SET_NO":999,"REV_AT_EPOCH":4211,"BSTAR":0,"MEAN_MOTION_DOT":0,"MEAN_MOTION_DDOT":0},{"OBJECT_NAME":"EUTELSAT 53A","OBJECT_ID":"2014-064A","EPOCH":"2026-04-27T06:04:38.612352","MEAN_MOTION":1.00272715,"ECCENTRICITY":3.04e-5,"INCLINATION":0.0203,"RA_OF_ASC_NODE":249.8365,"ARG_OF_PERICENTER":46.8274,"MEAN_ANOMALY":62.7441,"EPHEMERIS_TYPE":0,"CLASSIFICATION_TYPE":"U","NORAD_CAT_ID":40277,"ELEMENT_SET_NO":999,"REV_AT_EPOCH":4105,"BSTAR":0,"MEAN_MOTION_DOT":8.8e-7,"MEAN_MOTION_DDOT":0},{"OBJECT_NAME":"GSAT-16","OBJECT_ID":"2014-078A","EPOCH":"2026-04-27T04:40:38.534880","MEAN_MOTION":1.00272246,"ECCENTRICITY":0.0006935,"INCLINATION":0.1177,"RA_OF_ASC_NODE":84.4616,"ARG_OF_PERICENTER":348.9178,"MEAN_ANOMALY":267.0402,"EPHEMERIS_TYPE":0,"CLASSIFICATION_TYPE":"U","NORAD_CAT_ID":40332,"ELEMENT_SET_NO":999,"REV_AT_EPOCH":4159,"BSTAR":0,"MEAN_MOTION_DOT":7.5e-7,"MEAN_MOTION_DDOT":0},{"OBJECT_NAME":"DIRECTV 14","OBJECT_ID":"2014-078B","EPOCH":"2026-04-27T02:26:38.925024","MEAN_MOTION":1.00272214,"ECCENTRICITY":7.15e-6,"INCLINATION":0.0115,"RA_OF_ASC_NODE":56.2272,"ARG_OF_PERICENTER":70.8345,"MEAN_ANOMALY":25.4552,"EPHEMERIS_TYPE":0,"CLASSIFICATION_TYPE":"U","NORAD_CAT_ID":40333,"ELEMENT_SET_NO":999,"REV_AT_EPOCH":4153,"BSTAR":0,"MEAN_MOTION_DOT":-1.36e-6,"MEAN_MOTION_DDOT":0},{"OBJECT_NAME":"YAMAL 401","OBJECT_ID":"2014-082A","EPOCH":"2026-04-25T15:19:38.623872","MEAN_MOTION":1.00273371,"ECCENTRICITY":6.442e-5,"INCLINATION":0.0122,"RA_OF_ASC_NODE":165.5853,"ARG_OF_PERICENTER":235.6913,"MEAN_ANOMALY":132.236,"EPHEMERIS_TYPE":0,"CLASSIFICATION_TYPE":"U","NORAD_CAT_ID":40345,"ELEMENT_SET_NO":999,"REV_AT_EPOCH":4139,"BSTAR":0,"MEAN_MOTION_DOT":-2.43e-6,"MEAN_MOTION_DDOT":0},{"OBJECT_NAME":"ASTRA 2G","OBJECT_ID":"2014-089A","EPOCH":"2026-04-27T08:47:38.636160","MEAN_MOTION":1.00271632,"ECCENTRICITY":0.0004814,"INCLINATION":0.0578,"RA_OF_ASC_NODE":32.2511,"ARG_OF_PERICENTER":12.8877,"MEAN_ANOMALY":330.3077,"EPHEMERIS_TYPE":0,"CLASSIFICATION_TYPE":"U","NORAD_CAT_ID":40364,"ELEMENT_SET_NO":999,"REV_AT_EPOCH":4145,"BSTAR":0,"MEAN_MOTION_DOT":1.4e-6,"MEAN_MOTION_DDOT":0},{"OBJECT_NAME":"FENGYUN 2G","OBJECT_ID":"2014-090A","EPOCH":"2026-04-27T11:14:39.111936","MEAN_MOTION":1.00272279,"ECCENTRICITY":0.0002868,"INCLINATION":5.5133,"RA_OF_ASC_NODE":73.4139,"ARG_OF_PERICENTER":145.1611,"MEAN_ANOMALY":265.3398,"EPHEMERIS_TYPE":0,"CLASSIFICATION_TYPE":"U","NORAD_CAT_ID":40367,"ELEMENT_SET_NO":999,"REV_AT_EPOCH":4149,"BSTAR":0,"MEAN_MOTION_DOT":-3.08e-6,"MEAN_MOTION_DDOT":0},{"OBJECT_NAME":"MUOS-3","OBJECT_ID":"2015-002A","EPOCH":"2026-04-26T23:02:38.558400","MEAN_MOTION":1.00270286,"ECCENTRICITY":0.00510581,"INCLINATION":4.4233,"RA_OF_ASC_NODE":43.2696,"ARG_OF_PERICENTER":181.4349,"MEAN_ANOMALY":320.388,"EPHEMERIS_TYPE":0,"CLASSIFICATION_TYPE":"U","NORAD_CAT_ID":40374,"ELEMENT_SET_NO":999,"REV_AT_EPOCH":4107,"BSTAR":0,"MEAN_MOTION_DOT":-1.38e-6,"MEAN_MOTION_DDOT":0},{"OBJECT_NAME":"INMARSAT 5-F2","OBJECT_ID":"2015-005A","EPOCH":"2026-04-27T04:39:54.434592","MEAN_MOTION":1.00265813,"ECCENTRICITY":6.402e-5,"INCLINATION":0.0129,"RA_OF_ASC_NODE":239.8308,"ARG_OF_PERICENTER":113.1893,"MEAN_ANOMALY":237.1321,"EPHEMERIS_TYPE":0,"CLASSIFICATION_TYPE":"U","NORAD_CAT_ID":40384,"ELEMENT_SET_NO":999,"REV_AT_EPOCH":4048,"BSTAR":0,"MEAN_MOTION_DOT":0,"MEAN_MOTION_DDOT":0},{"OBJECT_NAME":"ABS-3A","OBJECT_ID":"2015-010A","EPOCH":"2026-04-27T05:20:38.796000","MEAN_MOTION":1.00269059,"ECCENTRICITY":0.0001435,"INCLINATION":0.0137,"RA_OF_ASC_NODE":257.8158,"ARG_OF_PERICENTER":84.5846,"MEAN_ANOMALY":309.9978,"EPHEMERIS_TYPE":0,"CLASSIFICATION_TYPE":"U","NORAD_CAT_ID":40424,"ELEMENT_SET_NO":999,"REV_AT_EPOCH":4086,"BSTAR":0,"MEAN_MOTION_DOT":-3.7e-7,"MEAN_MOTION_DDOT":0},{"OBJECT_NAME":"EUTELSAT 115 WEST B","OBJECT_ID":"2015-010B","EPOCH":"2026-04-27T11:47:05.187264","MEAN_MOTION":1.00270684,"ECCENTRICITY":1.1e-5,"INCLINATION":0.0103,"RA_OF_ASC_NODE":103.4697,"ARG_OF_PERICENTER":37.3133,"MEAN_ANOMALY":136.5728,"EPHEMERIS_TYPE":0,"CLASSIFICATION_TYPE":"U","NORAD_CAT_ID":40425,"ELEMENT_SET_NO":999,"REV_AT_EPOCH":4088,"BSTAR":0,"MEAN_MOTION_DOT":-3.4e-7,"MEAN_MOTION_DDOT":0},{"OBJECT_NAME":"EXPRESS-AM7","OBJECT_ID":"2015-012A","EPOCH":"2026-04-27T07:29:38.810400","MEAN_MOTION":1.00274391,"ECCENTRICITY":0.0002993,"INCLINATION":0.0241,"RA_OF_ASC_NODE":67.7738,"ARG_OF_PERICENTER":324.3401,"MEAN_ANOMALY":335.6045,"EPHEMERIS_TYPE":0,"CLASSIFICATION_TYPE":"U","NORAD_CAT_ID":40505,"ELEMENT_SET_NO":999,"REV_AT_EPOCH":4049,"BSTAR":0,"MEAN_MOTION_DOT":1.41e-6,"MEAN_MOTION_DDOT":0},{"OBJECT_NAME":"BEIDOU-3S IGSO-1S","OBJECT_ID":"2015-019A","EPOCH":"2026-04-22T23:45:28.549728","MEAN_MOTION":1.002611,"ECCENTRICITY":0.0037208,"INCLINATION":49.2998,"RA_OF_ASC_NODE":296.1212,"ARG_OF_PERICENTER":189.9963,"MEAN_ANOMALY":176.4804,"EPHEMERIS_TYPE":0,"CLASSIFICATION_TYPE":"U","NORAD_CAT_ID":40549,"ELEMENT_SET_NO":999,"REV_AT_EPOCH":4052,"BSTAR":0,"MEAN_MOTION_DOT":-1.71e-6,"MEAN_MOTION_DDOT":0},{"OBJECT_NAME":"THOR 7","OBJECT_ID":"2015-022A","EPOCH":"2026-04-27T05:20:38.796864","MEAN_MOTION":1.00270445,"ECCENTRICITY":0.0002802,"INCLINATION":0.0459,"RA_OF_ASC_NODE":86.1413,"ARG_OF_PERICENTER":303.4883,"MEAN_ANOMALY":265.1021,"EPHEMERIS_TYPE":0,"CLASSIFICATION_TYPE":"U","NORAD_CAT_ID":40613,"ELEMENT_SET_NO":999,"REV_AT_EPOCH":4030,"BSTAR":0,"MEAN_MOTION_DOT":-1.9e-7,"MEAN_MOTION_DDOT":0},{"OBJECT_NAME":"TURKMENALEM52E/MONACOSAT","OBJECT_ID":"2015-023A","EPOCH":"2026-04-27T04:40:38.535744","MEAN_MOTION":1.00272383,"ECCENTRICITY":0.00031926,"INCLINATION":0.0225,"RA_OF_ASC_NODE":94.4648,"ARG_OF_PERICENTER":306.1794,"MEAN_ANOMALY":296.7206,"EPHEMERIS_TYPE":0,"CLASSIFICATION_TYPE":"U","NORAD_CAT_ID":40617,"ELEMENT_SET_NO":999,"REV_AT_EPOCH":4033,"BSTAR":0,"MEAN_MOTION_DOT":0,"MEAN_MOTION_DDOT":0},{"OBJECT_NAME":"DIRECTV 15","OBJECT_ID":"2015-026A","EPOCH":"2026-04-27T11:41:08.815776","MEAN_MOTION":1.00270914,"ECCENTRICITY":3.65e-5,"INCLINATION":0.0291,"RA_OF_ASC_NODE":74.9055,"ARG_OF_PERICENTER":122.3866,"MEAN_ANOMALY":90.5923,"EPHEMERIS_TYPE":0,"CLASSIFICATION_TYPE":"U","NORAD_CAT_ID":40663,"ELEMENT_SET_NO":999,"REV_AT_EPOCH":3995,"BSTAR":0,"MEAN_MOTION_DOT":-1.12e-6,"MEAN_MOTION_DDOT":0}]
